CCSDS_OMM_VERS = 2.0
CREATION_DATE  = 
ORIGINATOR     = 

OBJECT_NAME    = STARLINK-36338
OBJECT_ID      = 2026-025M
CENTER_NAME    = EARTH
REF_FRAME      = TEME
TIME_SYSTEM    = UTC
MEAN_ELEMENT_THEORY = SGP/SGP4

EPOCH          = 2026-02-21T04:00:01.999584
MEAN_MOTION    = 15.86188571
ECCENTRICITY   = .0001661
INCLINATION    = 97.2732
RA_OF_ASC_NODE = 162.9009
ARG_OF_PERICENTER = 63.8954
MEAN_ANOMALY   = 63.2320

EPHEMERIS_TYPE = 0
CLASSIFICATION_TYPE = U
NORAD_CAT_ID   = 67704
ELEMENT_SET_NO = 999
REV_AT_EPOCH   = 324
BSTAR          = -.73384E-2
MEAN_MOTION_DOT = -.1590137E-1
MEAN_MOTION_DDOT = 0

CCSDS_OMM_VERS = 2.0
CREATION_DATE  = 
ORIGINATOR     = 

OBJECT_NAME    = STARLINK-36316
OBJECT_ID      = 2026-025N
CENTER_NAME    = EARTH
REF_FRAME      = TEME
TIME_SYSTEM    = UTC
MEAN_ELEMENT_THEORY = SGP/SGP4

EPOCH          = 2026-02-21T04:00:01.999584
MEAN_MOTION    = 15.86820394
ECCENTRICITY   = .0001839
INCLINATION    = 97.2724
RA_OF_ASC_NODE = 162.9088
ARG_OF_PERICENTER = 60.9450
MEAN_ANOMALY   = 84.1611

EPHEMERIS_TYPE = 0
CLASSIFICATION_TYPE = U
NORAD_CAT_ID   = 67705
ELEMENT_SET_NO = 999
REV_AT_EPOCH   = 324
BSTAR          = -.70143E-2
MEAN_MOTION_DOT = -.1570614E-1
MEAN_MOTION_DDOT = 0

CCSDS_OMM_VERS = 2.0
CREATION_DATE  = 
ORIGINATOR     = 

OBJECT_NAME    = STARLINK-36707
OBJECT_ID      = 2026-025P
CENTER_NAME    = EARTH
REF_FRAME      = TEME
TIME_SYSTEM    = UTC
MEAN_ELEMENT_THEORY = SGP/SGP4

EPOCH          = 2026-02-21T04:00:01.999584
MEAN_MOTION    = 15.87153846
ECCENTRICITY   = .000175
INCLINATION    = 97.2718
RA_OF_ASC_NODE = 162.9127
ARG_OF_PERICENTER = 63.2383
MEAN_ANOMALY   = 91.2334

EPHEMERIS_TYPE = 0
CLASSIFICATION_TYPE = U
NORAD_CAT_ID   = 67706
ELEMENT_SET_NO = 999
REV_AT_EPOCH   = 303
BSTAR          = -.68526E-2
MEAN_MOTION_DOT = -.1561044E-1
MEAN_MOTION_DDOT = 0

CCSDS_OMM_VERS = 2.0
CREATION_DATE  = 
ORIGINATOR     = 

OBJECT_NAME    = STARLINK-36645
OBJECT_ID      = 2026-025Q
CENTER_NAME    = EARTH
REF_FRAME      = TEME
TIME_SYSTEM    = UTC
MEAN_ELEMENT_THEORY = SGP/SGP4

EPOCH          = 2026-02-21T04:00:01.999584
MEAN_MOTION    = 15.86547378
ECCENTRICITY   = .0001835
INCLINATION    = 97.2726
RA_OF_ASC_NODE = 162.9049
ARG_OF_PERICENTER = 63.1691
MEAN_ANOMALY   = 74.2735

EPHEMERIS_TYPE = 0
CLASSIFICATION_TYPE = U
NORAD_CAT_ID   = 67707
ELEMENT_SET_NO = 999
REV_AT_EPOCH   = 280
BSTAR          = -.70988E-2
MEAN_MOTION_DOT = -.1568616E-1
MEAN_MOTION_DDOT = 0

CCSDS_OMM_VERS = 2.0
CREATION_DATE  = 
ORIGINATOR     = 

OBJECT_NAME    = STARLINK-36287
OBJECT_ID      = 2026-025R
CENTER_NAME    = EARTH
REF_FRAME      = TEME
TIME_SYSTEM    = UTC
MEAN_ELEMENT_THEORY = SGP/SGP4

EPOCH          = 2026-02-21T04:00:01.999584
MEAN_MOTION    = 15.87436918
ECCENTRICITY   = .0001819
INCLINATION    = 97.2714
RA_OF_ASC_NODE = 162.9154
ARG_OF_PERICENTER = 63.9307
MEAN_ANOMALY   = 98.6292

EPHEMERIS_TYPE = 0
CLASSIFICATION_TYPE = U
NORAD_CAT_ID   = 67708
ELEMENT_SET_NO = 999
REV_AT_EPOCH   = 335
BSTAR          = -.67118E-2
MEAN_MOTION_DOT = -.1551839E-1
MEAN_MOTION_DDOT = 0

CCSDS_OMM_VERS = 2.0
CREATION_DATE  = 
ORIGINATOR     = 

OBJECT_NAME    = STARLINK-36698
OBJECT_ID      = 2026-025S
CENTER_NAME    = EARTH
REF_FRAME      = TEME
TIME_SYSTEM    = UTC
MEAN_ELEMENT_THEORY = SGP/SGP4

EPOCH          = 2026-02-21T04:00:01.999584
MEAN_MOTION    = 15.88553772
ECCENTRICITY   = .0001747
INCLINATION    = 97.2704
RA_OF_ASC_NODE = 162.9289
ARG_OF_PERICENTER = 65.9873
MEAN_ANOMALY   = 127.4542

EPHEMERIS_TYPE = 0
CLASSIFICATION_TYPE = U
NORAD_CAT_ID   = 67709
ELEMENT_SET_NO = 999
REV_AT_EPOCH   = 319
BSTAR          = -.62587E-2
MEAN_MOTION_DOT = -.1501202E-1
MEAN_MOTION_DDOT = 0

CCSDS_OMM_VERS = 2.0
CREATION_DATE  = 
ORIGINATOR     = 

OBJECT_NAME    = STARLINK-36344
OBJECT_ID      = 2026-025T
CENTER_NAME    = EARTH
REF_FRAME      = TEME
TIME_SYSTEM    = UTC
MEAN_ELEMENT_THEORY = SGP/SGP4

EPOCH          = 2026-02-21T04:00:01.999584
MEAN_MOTION    = 15.87864949
ECCENTRICITY   = .0001793
INCLINATION    = 97.2711
RA_OF_ASC_NODE = 162.9208
ARG_OF_PERICENTER = 63.5813
MEAN_ANOMALY   = 110.8089

EPHEMERIS_TYPE = 0
CLASSIFICATION_TYPE = U
NORAD_CAT_ID   = 67710
ELEMENT_SET_NO = 999
REV_AT_EPOCH   = 335
BSTAR          = -.65408E-2
MEAN_MOTION_DOT = -.1513686E-1
MEAN_MOTION_DDOT = 0

CCSDS_OMM_VERS = 2.0
CREATION_DATE  = 
ORIGINATOR     = 

OBJECT_NAME    = STARLINK-36687
OBJECT_ID      = 2026-025U
CENTER_NAME    = EARTH
REF_FRAME      = TEME
TIME_SYSTEM    = UTC
MEAN_ELEMENT_THEORY = SGP/SGP4

EPOCH          = 2026-02-21T04:00:01.999584
MEAN_MOTION    = 15.88189027
ECCENTRICITY   = .0001855
INCLINATION    = 97.2707
RA_OF_ASC_NODE = 162.9246
ARG_OF_PERICENTER = 60.6981
MEAN_ANOMALY   = 122.5874

EPHEMERIS_TYPE = 0
CLASSIFICATION_TYPE = U
NORAD_CAT_ID   = 67711
ELEMENT_SET_NO = 999
REV_AT_EPOCH   = 335
BSTAR          = -.64401E-2
MEAN_MOTION_DOT = -.1514648E-1
MEAN_MOTION_DDOT = 0

CCSDS_OMM_VERS = 2.0
CREATION_DATE  = 
ORIGINATOR     = 

OBJECT_NAME    = STARLINK-36705
OBJECT_ID      = 2026-025V
CENTER_NAME    = EARTH
REF_FRAME      = TEME
TIME_SYSTEM    = UTC
MEAN_ELEMENT_THEORY = SGP/SGP4

EPOCH          = 2026-02-21T04:00:01.999584
MEAN_MOTION    = 15.88937825
ECCENTRICITY   = .000181
INCLINATION    = 97.2697
RA_OF_ASC_NODE = 162.9328
ARG_OF_PERICENTER = 61.7773
MEAN_ANOMALY   = 142.2486

EPHEMERIS_TYPE = 0
CLASSIFICATION_TYPE = U
NORAD_CAT_ID   = 67712
ELEMENT_SET_NO = 999
REV_AT_EPOCH   = 325
BSTAR          = -.6097E-2
MEAN_MOTION_DOT = -.1492453E-1
MEAN_MOTION_DDOT = 0

CCSDS_OMM_VERS = 2.0
CREATION_DATE  = 
ORIGINATOR     = 

OBJECT_NAME    = STARLINK-36708
OBJECT_ID      = 2026-025W
CENTER_NAME    = EARTH
REF_FRAME      = TEME
TIME_SYSTEM    = UTC
MEAN_ELEMENT_THEORY = SGP/SGP4

EPOCH          = 2026-02-21T04:00:01.999584
MEAN_MOTION    = 15.89852227
ECCENTRICITY   = .0001681
INCLINATION    = 97.2700
RA_OF_ASC_NODE = 162.9440
ARG_OF_PERICENTER = 73.8999
MEAN_ANOMALY   = 155.3088

EPHEMERIS_TYPE = 0
CLASSIFICATION_TYPE = U
NORAD_CAT_ID   = 67713
ELEMENT_SET_NO = 999
REV_AT_EPOCH   = 325
BSTAR          = -.57348E-2
MEAN_MOTION_DOT = -.1680165E-1
MEAN_MOTION_DDOT = .77064E-3

CCSDS_OMM_VERS = 2.0
CREATION_DATE  = 
ORIGINATOR     = 

OBJECT_NAME    = STARLINK-36702
OBJECT_ID      = 2026-025X
CENTER_NAME    = EARTH
REF_FRAME      = TEME
TIME_SYSTEM    = UTC
MEAN_ELEMENT_THEORY = SGP/SGP4

EPOCH          = 2026-02-21T04:00:01.999584
MEAN_MOTION    = 15.89575299
ECCENTRICITY   = .0001769
INCLINATION    = 97.2697
RA_OF_ASC_NODE = 162.9406
ARG_OF_PERICENTER = 66.1859
MEAN_ANOMALY   = 155.4258

EPHEMERIS_TYPE = 0
CLASSIFICATION_TYPE = U
NORAD_CAT_ID   = 67714
ELEMENT_SET_NO = 999
REV_AT_EPOCH   = 298
BSTAR          = -.58425E-2
MEAN_MOTION_DOT = -.16881E-1
MEAN_MOTION_DDOT = .77531E-3

CCSDS_OMM_VERS = 2.0
CREATION_DATE  = 
ORIGINATOR     = 

OBJECT_NAME    = STARLINK-36718
OBJECT_ID      = 2026-025Y
CENTER_NAME    = EARTH
REF_FRAME      = TEME
TIME_SYSTEM    = UTC
MEAN_ELEMENT_THEORY = SGP/SGP4

EPOCH          = 2026-02-21T04:00:01.999584
MEAN_MOTION    = 15.90521445
ECCENTRICITY   = .0001505
INCLINATION    = 97.2705
RA_OF_ASC_NODE = 162.9523
ARG_OF_PERICENTER = 77.5798
MEAN_ANOMALY   = 169.6948

EPHEMERIS_TYPE = 0
CLASSIFICATION_TYPE = U
NORAD_CAT_ID   = 67715
ELEMENT_SET_NO = 999
REV_AT_EPOCH   = 319
BSTAR          = -.55488E-2
MEAN_MOTION_DOT = -.1681263E-1
MEAN_MOTION_DDOT = .77666E-3

