STARLINK-36338          
1 67704U 26025M   26052.16668981 -.01590137  00000+0 -73384-2 0  9993
2 67704  97.2732 162.9009 0001661  63.8954  63.2320 15.86188571  3247
STARLINK-36316          
1 67705U 26025N   26052.16668981 -.01570614  00000+0 -70143-2 0  9992
2 67705  97.2724 162.9088 0001839  60.9450  84.1611 15.86820394  3243
STARLINK-36707          
1 67706U 26025P   26052.16668981 -.01561044  00000+0 -68526-2 0  9992
2 67706  97.2718 162.9127 0001750  63.2383  91.2334 15.87153846  3034
STARLINK-36645          
1 67707U 26025Q   26052.16668981 -.01568616  00000+0 -70988-2 0  9990
2 67707  97.2726 162.9049 0001835  63.1691  74.2735 15.86547378  2808
STARLINK-36287          
1 67708U 26025R   26052.16668981 -.01551839  00000+0 -67118-2 0  9991
2 67708  97.2714 162.9154 0001819  63.9307  98.6292 15.87436918  3354
STARLINK-36698          
1 67709U 26025S   26052.16668981 -.01501202  00000+0 -62587-2 0  9996
2 67709  97.2704 162.9289 0001747  65.9873 127.4542 15.88553772  3193
STARLINK-36344          
1 67710U 26025T   26052.16668981 -.01513686  00000+0 -65408-2 0  9992
2 67710  97.2711 162.9208 0001793  63.5813 110.8089 15.87864949  3353
STARLINK-36687          
1 67711U 26025U   26052.16668981 -.01514648  00000+0 -64401-2 0  9994
2 67711  97.2707 162.9246 0001855  60.6981 122.5874 15.88189027  3354
STARLINK-36705          
1 67712U 26025V   26052.16668981 -.01492453  00000+0 -60970-2 0  9991
2 67712  97.2697 162.9328 0001810  61.7773 142.2486 15.88937825  3250
STARLINK-36708          
1 67713U 26025W   26052.16668981 -.01680165  77064-3 -57348-2 0  9994
2 67713  97.2700 162.9440 0001681  73.8999 155.3088 15.89852227  3257
STARLINK-36702          
1 67714U 26025X   26052.16668981 -.01688100  77531-3 -58425-2 0  9998
2 67714  97.2697 162.9406 0001769  66.1859 155.4258 15.89575299  2982
STARLINK-36718          
1 67715U 26025Y   26052.16668981 -.01681263  77666-3 -55488-2 0  9997
2 67715  97.2705 162.9523 0001505  77.5798 169.6948 15.90521445  3192
